{
  "type": "FeatureCollection",
  "features": [
    {
      "type": "Feature",
      "properties": {
        "norad_id": 40010,
        "name": "KAZEOSAT 2",
        "group": "resource",
        "lat": -72.1248696074413,
        "lon": 0.38234692164159817,
        "alt_km": 620.9168143692095,
        "timestamp": "2025-12-27T02:10:15.845087+00:00",
        "meta_object_name": "KAZEOSAT 2",
        "meta_object_id": "2014-033A",
        "meta_epoch": "2025-12-26T20:10:54.490080",
        "meta_mean_motion": 14.85189928,
        "meta_eccentricity": 0.000882,
        "meta_inclination": 97.5496,
        "meta_ra_of_asc_node": 204.4272,
        "meta_arg_of_pericenter": 158.7715,
        "meta_mean_anomaly": 201.3868,
        "meta_ephemeris_type": 0,
        "meta_classification_type": "U",
        "meta_norad_cat_id": 40010,
        "meta_element_set_no": 999,
        "meta_rev_at_epoch": 62337,
        "meta_bstar": 8.4411e-05,
        "meta_mean_motion_dot": 6.73e-06,
        "meta_mean_motion_ddot": 0,
        "tle_line1": "1 40010U 14033A   25360.84090845  .00000673  00000+0  84411-4 0  9997",
        "tle_line2": "2 40010  97.5496 204.4272 0008820 158.7715 201.3868 14.85189928623374"
      },
      "geometry": {
        "type": "Point",
        "coordinates": [
          0.38234692164159817,
          -72.1248696074413
        ]
      }
    },
    {
      "type": "Feature",
      "properties": {
        "norad_id": 40011,
        "name": "HODOYOSHI-4",
        "group": "resource",
        "lat": 76.49018619846099,
        "lon": 42.72914412522131,
        "alt_km": 587.9151836029059,
        "timestamp": "2025-12-27T02:10:15.845097+00:00",
        "meta_object_name": "HODOYOSHI-4",
        "meta_object_id": "2014-033B",
        "meta_epoch": "2025-12-26T19:15:34.723872",
        "meta_mean_motion": 14.87531981,
        "meta_eccentricity": 0.0024283,
        "meta_inclination": 97.5413,
        "meta_ra_of_asc_node": 188.9934,
        "meta_arg_of_pericenter": 153.9431,
        "meta_mean_anomaly": 206.3014,
        "meta_ephemeris_type": 0,
        "meta_classification_type": "U",
        "meta_norad_cat_id": 40011,
        "meta_element_set_no": 999,
        "meta_rev_at_epoch": 62317,
        "meta_bstar": 0.0002774,
        "meta_mean_motion_dot": 2.478e-05,
        "meta_mean_motion_ddot": 0,
        "tle_line1": "1 40011U 14033B   25360.80248523  .00002478  00000+0  27740-3 0  9998",
        "tle_line2": "2 40011  97.5413 188.9934 0024283 153.9431 206.3014 14.87531981623176"
      },
      "geometry": {
        "type": "Point",
        "coordinates": [
          42.72914412522131,
          76.49018619846099
        ]
      }
    },
    {
      "type": "Feature",
      "properties": {
        "norad_id": 40013,
        "name": "DEIMOS-2",
        "group": "resource",
        "lat": -2.3939415176023178,
        "lon": 56.09739278077149,
        "alt_km": 591.533049625461,
        "timestamp": "2025-12-27T02:10:15.845107+00:00",
        "meta_object_name": "DEIMOS-2",
        "meta_object_id": "2014-033D",
        "meta_epoch": "2025-12-26T20:31:54.774912",
        "meta_mean_motion": 14.93032849,
        "meta_eccentricity": 0.000142,
        "meta_inclination": 97.6049,
        "meta_ra_of_asc_node": 236.1903,
        "meta_arg_of_pericenter": 110.8809,
        "meta_mean_anomaly": 249.2563,
        "meta_ephemeris_type": 0,
        "meta_classification_type": "U",
        "meta_norad_cat_id": 40013,
        "meta_element_set_no": 999,
        "meta_rev_at_epoch": 61200,
        "meta_bstar": 0.00029282,
        "meta_mean_motion_dot": 2.992e-05,
        "meta_mean_motion_ddot": 0,
        "tle_line1": "1 40013U 14033D   25360.85549508  .00002992  00000+0  29282-3 0  9996",
        "tle_line2": "2 40013  97.6049 236.1903 0001420 110.8809 249.2563 14.93032849612006"
      },
      "geometry": {
        "type": "Point",
        "coordinates": [
          56.09739278077149,
          -2.3939415176023178
        ]
      }
    },
    {
      "type": "Feature",
      "properties": {
        "norad_id": 40015,
        "name": "HODOYOSHI-3",
        "group": "resource",
        "lat": -67.89001101747594,
        "lon": -32.939854146791035,
        "alt_km": 606.5422557243855,
        "timestamp": "2025-12-27T02:10:15.845118+00:00",
        "meta_object_name": "HODOYOSHI-3",
        "meta_object_id": "2014-033F",
        "meta_epoch": "2025-12-26T16:57:59.278176",
        "meta_mean_motion": 14.84853935,
        "meta_eccentricity": 0.0032641,
        "meta_inclination": 97.6208,
        "meta_ra_of_asc_node": 165.9356,
        "meta_arg_of_pericenter": 200.5721,
        "meta_mean_anomaly": 159.4182,
        "meta_ephemeris_type": 0,
        "meta_classification_type": "U",
        "meta_norad_cat_id": 40015,
        "meta_element_set_no": 999,
        "meta_rev_at_epoch": 62202,
        "meta_bstar": 0.00020946,
        "meta_mean_motion_dot": 1.744e-05,
        "meta_mean_motion_ddot": 0,
        "tle_line1": "1 40015U 14033F   25360.70693609  .00001744  00000+0  20946-3 0  9996",
        "tle_line2": "2 40015  97.6208 165.9356 0032641 200.5721 159.4182 14.84853935622024"
      },
      "geometry": {
        "type": "Point",
        "coordinates": [
          -32.939854146791035,
          -67.89001101747594
        ]
      }
    },
    {
      "type": "Feature",
      "properties": {
        "norad_id": 40053,
        "name": "SPOT 7",
        "group": "resource",
        "lat": 10.295973987721851,
        "lon": -115.68625061052336,
        "alt_km": 692.2978299033102,
        "timestamp": "2025-12-27T02:10:15.845128+00:00",
        "meta_object_name": "SPOT 7",
        "meta_object_id": "2014-034A",
        "meta_epoch": "2025-12-26T20:27:57.259584",
        "meta_mean_motion": 14.60751133,
        "meta_eccentricity": 0.0001503,
        "meta_inclination": 98.0883,
        "meta_ra_of_asc_node": 62.6013,
        "meta_arg_of_pericenter": 80.4362,
        "meta_mean_anomaly": 279.7008,
        "meta_ephemeris_type": 0,
        "meta_classification_type": "U",
        "meta_norad_cat_id": 40053,
        "meta_element_set_no": 999,
        "meta_rev_at_epoch": 61197,
        "meta_bstar": 0.00011855,
        "meta_mean_motion_dot": 5.33e-06,
        "meta_mean_motion_ddot": 0,
        "tle_line1": "1 40053U 14034A   25360.85274606  .00000533  00000+0  11855-3 0  9991",
        "tle_line2": "2 40053  98.0883  62.6013 0001503  80.4362 279.7008 14.60751133611978"
      },
      "geometry": {
        "type": "Point",
        "coordinates": [
          -115.68625061052336,
          10.295973987721851
        ]
      }
    },
    {
      "type": "Feature",
      "properties": {
        "norad_id": 40072,
        "name": "SKYSAT-B",
        "group": "resource",
        "lat": 36.96850364597306,
        "lon": -60.801269923689794,
        "alt_km": 602.090004151878,
        "timestamp": "2025-12-27T02:10:15.845138+00:00",
        "meta_object_name": "SKYSAT-B",
        "meta_object_id": "2014-037D",
        "meta_epoch": "2025-12-26T19:32:42.335232",
        "meta_mean_motion": 14.87377636,
        "meta_eccentricity": 0.0006878,
        "meta_inclination": 98.363,
        "meta_ra_of_asc_node": 305.2652,
        "meta_arg_of_pericenter": 111.2738,
        "meta_mean_anomaly": 248.9212,
        "meta_ephemeris_type": 0,
        "meta_classification_type": "U",
        "meta_norad_cat_id": 40072,
        "meta_element_set_no": 999,
        "meta_rev_at_epoch": 62033,
        "meta_bstar": 0.00022124,
        "meta_mean_motion_dot": 1.939e-05,
        "meta_mean_motion_ddot": 0,
        "tle_line1": "1 40072U 14037D   25360.81437888  .00001939  00000+0  22124-3 0  9996",
        "tle_line2": "2 40072  98.3630 305.2652 0006878 111.2738 248.9212 14.87377636620333"
      },
      "geometry": {
        "type": "Point",
        "coordinates": [
          -60.801269923689794,
          36.96850364597306
        ]
      }
    },
    {
      "type": "Feature",
      "properties": {
        "norad_id": 40115,
        "name": "WORLDVIEW-3 (WV-3)",
        "group": "resource",
        "lat": 14.652240022391872,
        "lon": -104.72995198394388,
        "alt_km": 614.3840444710559,
        "timestamp": "2025-12-27T02:10:15.845148+00:00",
        "meta_object_name": "WORLDVIEW-3 (WV-3)",
        "meta_object_id": "2014-048A",
        "meta_epoch": "2025-12-26T18:57:36.035424",
        "meta_mean_motion": 14.84679755,
        "meta_eccentricity": 0.0002103,
        "meta_inclination": 97.8763,
        "meta_ra_of_asc_node": 72.899,
        "meta_arg_of_pericenter": 126.8671,
        "meta_mean_anomaly": 233.2737,
        "meta_ephemeris_type": 0,
        "meta_classification_type": "U",
        "meta_norad_cat_id": 40115,
        "meta_element_set_no": 999,
        "meta_rev_at_epoch": 61632,
        "meta_bstar": 0.00014299,
        "meta_mean_motion_dot": 1.157e-05,
        "meta_mean_motion_ddot": 0,
        "tle_line1": "1 40115U 14048A   25360.79000041  .00001157  00000+0  14299-3 0  9996",
        "tle_line2": "2 40115  97.8763  72.8990 0002103 126.8671 233.2737 14.84679755616326"
      },
      "geometry": {
        "type": "Point",
        "coordinates": [
          -104.72995198394388,
          14.652240022391872
        ]
      }
    }
  ]
}